[{"OBJECT_NAME":"TRANSPORTER-14 OBJECT AJ","OBJECT_ID":"2025-135AJ","EPOCH":"2026-03-09T23:01:26.659776","MEAN_MOTION":14.94645004,"ECCENTRICITY":8.275e-5,"INCLINATION":97.7608,"RA_OF_ASC_NODE":184.5717,"ARG_OF_PERICENTER":139.5374,"MEAN_ANOMALY":220.5908,"EPHEMERIS_TYPE":0,"CLASSIFICATION_TYPE":"U","NORAD_CAT_ID":64560,"ELEMENT_SET_NO":999,"REV_AT_EPOCH":3908,"BSTAR":0.00059250683,"MEAN_MOTION_DOT":6.366e-5,"MEAN_MOTION_DDOT":0},{"OBJECT_NAME":"FENGYUN 1C DEB","OBJECT_ID":"1999-025ECN","EPOCH":"2026-03-02T11:35:56.929056","MEAN_MOTION":14.49527005,"ECCENTRICITY":0.0254766,"INCLINATION":99.2938,"RA_OF_ASC_NODE":323.2209,"ARG_OF_PERICENTER":11.3971,"MEAN_ANOMALY":349.2842,"EPHEMERIS_TYPE":0,"CLASSIFICATION_TYPE":"U","NORAD_CAT_ID":37006,"ELEMENT_SET_NO":999,"REV_AT_EPOCH":66269,"BSTAR":0.0010822805,"MEAN_MOTION_DOT":6.233e-5,"MEAN_MOTION_DDOT":0}]
